IRIDIUM 57 [-]          
1 25273U 98019B   23305.79458645  .00000579  00000+0  19680-3 0  9994
2 25273  86.4008  33.7380 0002132  93.2613 266.8827 14.34963279339667
IRIDIUM 63 [-]          
1 25286U 98021B   23305.83196143  .00000560  00000+0  18814-3 0  9996
2 25286  86.3975 330.6872 0002309  87.8445 272.3016 14.35467245338693
IRIDIUM 69 [-]          
1 25319U 98026A   23305.87073761  .00000679  00000+0  21107-3 0  9992
2 25319  86.4002 345.7160 0003246 136.4627 223.6828 14.39643264337907
IRIDIUM 71 [-]          
1 25320U 98026B   23305.85241162  .00000548  00000+0  16778-3 0  9997
2 25320  86.3987 340.5494 0001085 163.4643 196.6591 14.39974657338179
IRIDIUM 73 [-]          
1 25344U 98032C   23305.93030151  .00000854  00000+0  21493-3 0  9993
2 25344  86.4368 298.3018 0002250 106.6117 253.5334 14.50099072344549
IRIDIUM 82 [-]          
1 25467U 98051A   23306.21155867  .00011424  00000+0  66656-3 0  9999
2 25467  86.3994  33.0267 0143775 334.4454  24.9718 15.03399399334169
IRIDIUM 2 [-]           
1 25527U 98066A   23305.90039123  .00048144  00000+0  10640-2 0  9993
2 25527  85.5167  87.5461 0005125 119.8353 240.3412 15.43637123372349
